STARLINK-2319           
1 47790U 21018D   26068.63682306  .00000665  00000+0  34593-4 0  9999
2 47790  53.1599 216.9503 0001262 122.8406 237.2717 15.30195970277095
2025-313BE              
1 67482U 25313BE  26068.69721505  .00077178  00000+0  26504-2 0  9996
2 67482  97.3989 145.3568 0007208 335.3714  24.7181 15.29801687  7972
